COMMENT,ORIGINATOR,NORAD_CAT_ID,OBJECT_NAME,OBJECT_TYPE,CLASSIFICATION_TYPE,INTLDES,EPOCH,EPOCH_MICROSECONDS,MEAN_MOTION,ECCENTRICITY,INCLINATION,RA_OF_ASC_NODE,ARG_OF_PERICENTER,MEAN_ANOMALY,EPHEMERIS_TYPE,ELEMENT_SET_NO,REV_AT_EPOCH,BSTAR,MEAN_MOTION_DOT,MEAN_MOTION_DDOT,FILE,TLE_LINE0,TLE_LINE1,TLE_LINE2,OBJECT_ID,OBJECT_NUMBER,SEMIMAJOR_AXIS,PERIOD,APOGEE,PERIGEE,DECAYED
"GENERATED VIA SPACETRACK.ORG API","18 SPCS","55091","SPACEBEE-164","PAYLOAD","U","23001CL","2023-03-29 17:35:56","166144","15.16860251","0.0014327","97.4863","149.6559","277.5712","82.3893","0","999","1304","0.0011945","0.00023559","0","3874790","0 SPACEBEE-164","1 55091U 23001CL  23088.73328896  .00023559  00000-0  11945-2 0  9999","2 55091  97.4863 149.6559 0014327 277.5712  82.3893 15.16860251 13042","2023-001CL","55091","6893.474","94.933","525.215","505.462","0"
"GENERATED VIA SPACETRACK.ORG API","18 SPCS","55091","SPACEBEE-164","PAYLOAD","U","23001CL","2023-03-30 09:25:51","548736","15.16891489","0.0014427","97.4863","150.3069","275.4023","84.5564","0","999","1314","0.0012453","0.0002459","0","3875393","0 SPACEBEE-164","1 55091U 23001CL  23089.39295774  .00024590  00000-0  12453-2 0  9991","2 55091  97.4863 150.3069 0014427 275.4023  84.5564 15.16891489 13147","2023-001CL","55091","6893.379","94.931","525.189","505.299","0"
"GENERATED VIA SPACETRACK.ORG API","18 SPCS","55091","SPACEBEE-164","PAYLOAD","U","23001CL","2023-03-30 15:45:49","386240","15.16906404","0.0014406","97.4862","150.5675","274.2107","85.748","0","999","1318","0.0013569","0.00026819","0","3875726","0 SPACEBEE-164","1 55091U 23001CL  23089.65682160  .00026819  00000-0  13569-2 0  9994","2 55091  97.4862 150.5675 0014406 274.2107  85.7480 15.16906404 13186","2023-001CL","55091","6893.334","94.930","525.129","505.268","0"
"GENERATED VIA SPACETRACK.ORG API","18 SPCS","55091","SPACEBEE-164","PAYLOAD","U","23001CL","2023-03-31 12:20:40","792128","15.16953826","0.0014431","97.4867","151.4148","270.884","89.074","0","999","1331","0.0014284","0.00028279","0","3876387","0 SPACEBEE-164","1 55091U 23001CL  23090.51436102  .00028279  00000-0  14284-2 0  9991","2 55091  97.4867 151.4148 0014431 270.8840  89.0740 15.16953826 13311","2023-001CL","55091","6893.190","94.927","525.003","505.108","0"
"GENERATED VIA SPACETRACK.ORG API","18 SPCS","55091","SPACEBEE-164","PAYLOAD","U","23001CL","2023-04-01 02:35:33","623520","15.16981339","0.0014404","97.4867","152.0016","268.7881","91.1703","0","999","1340","0.0012847","0.00025438","0","3877270","0 SPACEBEE-164","1 55091U 23001CL  23091.10802805  .00025438  00000-0  12847-2 0  9991","2 55091  97.4867 152.0016 0014404 268.7881  91.1703 15.16981339 13406","2023-001CL","55091","6893.107","94.925","524.901","505.043","0"
"GENERATED VIA SPACETRACK.ORG API","18 SPCS","55091","SPACEBEE-164","PAYLOAD","U","23001CL","2023-04-01 16:50:25","552032","15.17004836","0.0014343","97.4867","152.5877","266.3257","93.6336","0","999","1349","0.0010323","0.00020426","0","3877499","0 SPACEBEE-164","1 55091U 23001CL  23091.70168463  .00020426  00000-0  10323-2 0  9991","2 55091  97.4867 152.5877 0014343 266.3257  93.6336 15.17004836 13496","2023-001CL","55091","6893.036","94.924","524.787","505.014","0"
"GENERATED VIA SPACETRACK.ORG API","18 SPCS","55091","SPACEBEE-164","PAYLOAD","U","23001CL","2023-04-01 21:35:22","638912","15.17015155","0.0014349","97.4867","152.7833","265.6187","94.3407","0","999","1352","0.0011773","0.00023321","0","3877516","0 SPACEBEE-164","1 55091U 23001CL  23091.89956758  .00023321  00000-0  11773-2 0  9990","2 55091  97.4867 152.7833 0014349 265.6187  94.3407 15.17015155 13527","2023-001CL","55091","6893.004","94.923","524.760","504.979","0"
"GENERATED VIA SPACETRACK.ORG API","18 SPCS","55091","SPACEBEE-164","PAYLOAD","U","23001CL","2023-04-02 02:20:19","684320","15.17023567","0.0014297","97.4865","152.9789","264.9564","95.0038","0","999","1355","0.0011531","0.00022844","0","3878126","0 SPACEBEE-164","1 55091U 23001CL  23092.09745005  .00022844  00000-0  11531-2 0  9995","2 55091  97.4865 152.9789 0014297 264.9564  95.0038 15.17023567 13557","2023-001CL","55091","6892.979","94.923","524.699","504.989","0"
"GENERATED VIA SPACETRACK.ORG API","18 SPCS","55091","SPACEBEE-164","PAYLOAD","U","23001CL","2023-04-02 16:35:10","155264","15.17049063","0.0014311","97.4864","153.565","262.4452","97.5156","0","999","1364","0.0010573","0.0002095","0","3878419","0 SPACEBEE-164","1 55091U 23001CL  23092.69108976  .00020950  00000-0  10573-2 0  9992","2 55091  97.4864 153.5650 0014311 262.4452  97.5156 15.17049063 13643","2023-001CL","55091","6892.902","94.921","524.631","504.902","0"
"GENERATED VIA SPACETRACK.ORG API","18 SPCS","55091","SPACEBEE-164","PAYLOAD","U","23001CL","2023-04-03 05:15:00","992736","15.17071122","0.0014317","97.486","154.0864","260.5787","99.3828","0","999","1372","0.0010781","0.00021378","0","3878708","0 SPACEBEE-164","1 55091U 23001CL  23093.21876149  .00021378  00000-0  10781-2 0  9991","2 55091  97.4860 154.0864 0014317 260.5787  99.3828 15.17071122 13724","2023-001CL","55091","6892.835","94.920","524.568","504.831","0"
"GENERATED VIA SPACETRACK.ORG API","18 SPCS","55091","SPACEBEE-164","PAYLOAD","U","23001CL","2023-04-04 03:24:43","468128","15.17105996","0.0014412","97.4856","154.9987","257.116","102.8464","0","999","1386","0.00098207","0.00019483","0","3879974","0 SPACEBEE-164","1 55091U 23001CL  23094.14216977  .00019483  00000-0  98207-3 0  9995","2 55091  97.4856 154.9987 0014412 257.1160 102.8464 15.17105996 13865","2023-001CL","55091","6892.729","94.918","524.528","504.661","0"
"GENERATED VIA SPACETRACK.ORG API","18 SPCS","55091","SPACEBEE-164","PAYLOAD","U","23001CL","2023-04-05 03:09:22","547808","15.17144403","0.0014517","97.485","155.976","253.484","106.4798","0","999","1401","0.00095445","0.00018954","0","3880569","0 SPACEBEE-164","1 55091U 23001CL  23095.13151097  .00018954  00000-0  95445-3 0  9999","2 55091  97.4850 155.9760 0014517 253.4840 106.4798 15.17144403 14013","2023-001CL","55091","6892.613","94.915","524.484","504.472","0"
"GENERATED VIA SPACETRACK.ORG API","18 SPCS","55091","SPACEBEE-164","PAYLOAD","U","23001CL","2023-04-05 11:04:15","82752","15.17156953","0.0014601","97.485","156.3015","252.3479","107.616","0","999","1406","0.00094399","0.00018752","0","3880853","0 SPACEBEE-164","1 55091U 23001CL  23095.46128568  .00018752  00000-0  94399-3 0  9995","2 55091  97.4850 156.3015 0014601 252.3479 107.6160 15.17156953 14065","2023-001CL","55091","6892.575","94.914","524.504","504.376","0"
"GENERATED VIA SPACETRACK.ORG API","18 SPCS","55091","SPACEBEE-164","PAYLOAD","U","23001CL","2023-04-05 20:34:05","832480","15.17172784","0.0014618","97.485","156.6925","250.8744","109.0907","0","999","1412","0.0009663","0.00019207","0","3881153","0 SPACEBEE-164","1 55091U 23001CL  23095.85701195  .00019207  00000-0  96630-3 0  9997","2 55091  97.4850 156.6925 0014618 250.8744 109.0907 15.17172784 14126","2023-001CL","55091","6892.527","94.913","524.468","504.317","0"
"GENERATED VIA SPACETRACK.ORG API","18 SPCS","55091","SPACEBEE-164","PAYLOAD","U","23001CL","2023-04-06 13:58:47","999136","15.17199351","0.0014678","97.4848","157.4093","248.2036","111.7636","0","999","1423","0.00090552","0.00018006","0","3881771","0 SPACEBEE-164","1 55091U 23001CL  23096.58249999  .00018006  00000-0  90552-3 0  9990","2 55091  97.4848 157.4093 0014678 248.2036 111.7636 15.17199351 14239","2023-001CL","55091","6892.447","94.912","524.428","504.195","0"
"GENERATED VIA SPACETRACK.ORG API","18 SPCS","55091","SPACEBEE-164","PAYLOAD","U","23001CL","2023-04-06 15:33:46","317600","15.17202077","0.0014677","97.4848","157.4744","247.9603","112.0072","0","999","1424","0.00090507","0.00017998","0","3882020","0 SPACEBEE-164","1 55091U 23001CL  23096.64845275  .00017998  00000-0  90507-3 0  9995","2 55091  97.4848 157.4744 0014677 247.9603 112.0072 15.17202077 14246","2023-001CL","55091","6892.438","94.912","524.419","504.187","0"
"GENERATED VIA SPACETRACK.ORG API","18 SPCS","55091","SPACEBEE-164","PAYLOAD","U","23001CL","2023-04-06 15:33:46","317600","15.17202077","0.0014677","97.4848","157.4744","247.9603","112.0072","0","999","1424","0.00090507","0.00017998","0","3882049","0 SPACEBEE-164","1 55091U 23001CL  23096.64845275  .00017998  00000-0  90507-3 0  9995","2 55091  97.4848 157.4744 0014677 247.9603 112.0072 15.17202077 14246","2023-001CL","55091","6892.438","94.912","524.419","504.187","0"
"GENERATED VIA SPACETRACK.ORG API","18 SPCS","55091","SPACEBEE-164","PAYLOAD","U","23001CL","2023-04-07 04:13:32","556864","15.17223897","0.0014647","97.4847","157.9956","245.9436","114.0265","0","999","1432","0.0009643","0.00019195","0","3882626","0 SPACEBEE-164","1 55091U 23001CL  23097.17607126  .00019195  00000-0  96430-3 0  9997","2 55091  97.4847 157.9956 0014647 245.9436 114.0265 15.17223897 14322","2023-001CL","55091","6892.372","94.910","524.333","504.142","0"
"GENERATED VIA SPACETRACK.ORG API","18 SPCS","55091","SPACEBEE-164","PAYLOAD","U","23001CL","2023-04-08 03:58:05","198880","15.17258182","0.0014642","97.4844","158.9731","242.1067","117.8684","0","999","1447","0.00085285","0.0001698","0","3883499","0 SPACEBEE-164","1 55091U 23001CL  23098.16533795  .00016980  00000-0  85285-3 0  9992","2 55091  97.4844 158.9731 0014642 242.1067 117.8684 15.17258182 14472","2023-001CL","55091","6892.268","94.908","524.225","504.042","0"
"GENERATED VIA SPACETRACK.ORG API","18 SPCS","55091","SPACEBEE-164","PAYLOAD","U","23001CL","2023-04-08 03:58:05","198880","15.17258182","0.0014642","97.4844","158.9731","242.1067","117.8684","0","999","1447","0.00085285","0.0001698","0","3883527","0 SPACEBEE-164","1 55091U 23001CL  23098.16533795  .00016980  00000-0  85285-3 0  9992","2 55091  97.4844 158.9731 0014642 242.1067 117.8684 15.17258182 14472","2023-001CL","55091","6892.268","94.908","524.225","504.042","0"
